NORAD_CAT_ID,OBJECT_NAME,OBJECT_TYPE,EPOCH,MEAN_MOTION,ECCENTRICITY,INCLINATION,RA_OF_ASC_NODE,ARG_OF_PERICENTER,MEAN_ANOMALY,BSTAR,MEAN_MOTION_DOT,MEAN_MOTION_DDOT,TLE_LINE0,TLE_LINE1,TLE_LINE2,SEMIMAJOR_AXIS,PERIOD,APOGEE,PERIGEE,DECAYED
53995.0,STARLINK-5097,PAYLOAD,2023-07-04 23:54:14,15.08842526,8.45e-05,53.2181,287.6106,94.8942,265.2146,2.4195e-05,9.7e-07,0.0,0 STARLINK-5097,1 53995U 22125AH  23185.99600331  .00000097  00000-0  24195-4 0  9994,2 53995  53.2181 287.6106 0000845  94.8942 265.2146 15.08842526 41783,6917.873,95.437,540.322,539.153,0.0
53995.0,STARLINK-5097,PAYLOAD,2023-07-05 12:37:20,15.08838012,8.93e-05,53.2181,285.2318,89.3419,270.7675,3.1014e-05,2.06e-06,0.0,0 STARLINK-5097,1 53995U 22125AH  23186.52592725  .00000206  00000-0  31014-4 0  9991,2 53995  53.2181 285.2318 0000893  89.3419 270.7675 15.08838012 41865,6917.886,95.438,540.369,539.134,0.0
53995.0,STARLINK-5097,PAYLOAD,2023-07-06 15:38:52,15.0884853,8.89e-05,53.2181,280.1753,86.7079,273.4015,0.00014188,1.972e-05,0.0,0 STARLINK-5097,1 53995U 22125AH  23187.65199924  .00001972  00000-0  14188-3 0  9993,2 53995  53.2181 280.1753 0000889  86.7079 273.4015 15.08848530 42034,6917.854,95.437,540.334,539.104,0.0
53995.0,STARLINK-5097,PAYLOAD,2023-07-06 23:35:48,15.08843938,8.87e-05,53.2178,278.6882,86.1892,273.9202,9.4119e-05,1.211e-05,0.0,0 STARLINK-5097,1 53995U 22125AH  23187.98320260  .00001211  00000-0  94119-4 0  9997,2 53995  53.2178 278.6882 0000887  86.1892 273.9202 15.08843938 42085,6917.868,95.437,540.347,539.12,0.0
53995.0,STARLINK-5097,PAYLOAD,2023-07-08 05:48:08,15.08841093,9.52e-05,53.2178,273.0397,85.2108,274.8992,4.2704e-05,3.92e-06,0.0,0 STARLINK-5097,1 53995U 22125AH  23189.24176470  .00000392  00000-0  42704-4 0  9992,2 53995  53.2178 273.0397 0000952  85.2108 274.8992 15.08841093 42275,6917.877,95.437,540.401,539.083,0.0
53995.0,STARLINK-5097,PAYLOAD,2023-07-09 10:25:05,15.0883353,8.33e-05,53.218,267.6862,101.7956,258.3129,-9.5235e-06,-4.39e-06,0.0,0 STARLINK-5097,1 53995U 22125AH  23190.43409030 -.00000439  00000-0 -95235-5 0  9998,2 53995  53.2180 267.6862 0000833 101.7956 258.3129 15.08833530 42453,6917.9,95.438,540.341,539.189,0.0
53995.0,STARLINK-5097,PAYLOAD,2023-07-10 08:40:28,15.08839309,9.08e-05,53.2176,263.523,103.4376,256.6718,8.0935e-05,1.001e-05,0.0,0 STARLINK-5097,1 53995U 22125AH  23191.36144597  .00001001  00000-0  80935-4 0  9999,2 53995  53.2176 263.5230 0000908 103.4376 256.6718 15.08839309 42590,6917.883,95.438,540.376,539.119,0.0
53995.0,STARLINK-5097,PAYLOAD,2023-07-11 13:17:25,15.08835297,8.85e-05,53.2173,258.1709,77.7452,282.364,8.5038e-05,1.066e-05,0.0,0 STARLINK-5097,1 53995U 22125AH  23192.55377140  .00001066  00000-0  85038-4 0  9993,2 53995  53.2173 258.1709 0000885  77.7452 282.3640 15.08835297 42772,6917.895,95.438,540.372,539.148,0.0
53995.0,STARLINK-5097,PAYLOAD,2023-07-13 12:58:59,15.08840761,9.81e-05,53.2179,249.2476,81.5831,278.5272,4.8697e-05,4.87e-06,0.0,0 STARLINK-5097,1 53995U 22125AH  23194.54097139  .00000487  00000-0  48697-4 0  9997,2 53995  53.2179 249.2476 0000981  81.5831 278.5272 15.08840761 43075,6917.878,95.438,540.422,539.064,0.0
53995.0,STARLINK-5097,PAYLOAD,2023-07-14 09:39:01,15.08834061,9.95e-05,53.2176,245.382,87.5597,272.5509,4.379e-05,4.09e-06,0.0,0 STARLINK-5097,1 53995U 22125AH  23195.40209731  .00000409  00000-0  43790-4 0  9999,2 53995  53.2176 245.3820 0000995  87.5597 272.5509 15.08834061 43200,6917.899,95.438,540.452,539.075,0.0
53995.0,STARLINK-5097,PAYLOAD,2023-07-14 20:46:42,15.08840765,0.0001001,53.2177,243.3013,85.5064,274.6043,9.4511e-05,1.217e-05,0.0,0 STARLINK-5097,1 53995U 22125AH  23195.86577273  .00001217  00000-0  94511-4 0  9993,2 53995  53.2177 243.3013 0001001  85.5064 274.6043 15.08840765 43270,6917.878,95.438,540.436,539.051,0.0
53995.0,STARLINK-5097,PAYLOAD,2023-07-15 12:40:33,15.08849402,9.71e-05,53.217,240.3283,82.3106,277.7996,0.00012863,1.76e-05,0.0,0 STARLINK-5097,1 53995U 22125AH  23196.52816545  .00001760  00000-0  12863-3 0  9997,2 53995  53.2170 240.3283 0000971  82.3106 277.7996 15.08849402 43375,6917.852,95.437,540.388,539.045,0.0
53995.0,STARLINK-5097,PAYLOAD,2023-07-16 02:59:02,15.08836633,0.0001189,53.2168,237.6526,84.7324,275.3804,8.2228e-05,1.021e-05,0.0,0 STARLINK-5097,1 53995U 22125AH  23197.12433598  .00001021  00000-0  82228-4 0  9990,2 53995  53.2168 237.6526 0001189  84.7324 275.3804 15.08836633 43465,6917.891,95.438,540.578,538.933,0.0
53995.0,STARLINK-5097,PAYLOAD,2023-07-17 09:11:21,15.08845704,9.5e-05,53.2173,232.0037,84.1384,275.9716,4.2808e-05,3.94e-06,0.0,0 STARLINK-5097,1 53995U 22125AH  23198.38289269  .00000394  00000-0  42808-4 0  9995,2 53995  53.2173 232.0037 0000950  84.1384 275.9716 15.08845704 43650,6917.863,95.437,540.385,539.071,0.0
53995.0,STARLINK-5097,PAYLOAD,2023-07-18 10:37:32,15.08831234,8.83e-05,53.2168,227.2452,83.6017,276.5075,4.3789e-05,4.09e-06,0.0,0 STARLINK-5097,1 53995U 22125AH  23199.44274242  .00000409  00000-0  43789-4 0  9994,2 53995  53.2168 227.2452 0000883  83.6017 276.5075 15.08831234 43819,6917.907,95.438,540.383,539.161,0.0
53995.0,STARLINK-5097,PAYLOAD,2023-07-19 02:31:25,15.08827661,8.83e-05,53.2164,224.2712,80.61,279.4992,-6.0625e-05,-1.252e-05,0.0,0 STARLINK-5097,1 53995U 22125AH  23200.10515208 -.00001252  00000-0 -60625-4 0  9997,2 53995  53.2164 224.2712 0000883  80.6100 279.4992 15.08827661 43911,6917.918,95.438,540.394,539.172,0.0
53995.0,STARLINK-5097,PAYLOAD,2023-07-19 10:28:20,15.08831884,9.29e-05,53.2165,222.7841,78.9329,281.1767,-2.7109e-05,-7.19e-06,0.0,0 STARLINK-5097,1 53995U 22125AH  23200.43635046 -.00000719  00000-0 -27109-4 0  9993,2 53995  53.2165 222.7841 0000929  78.9329 281.1767 15.08831884 43969,6917.905,95.438,540.413,539.128,0.0
53995.0,STARLINK-5097,PAYLOAD,2023-07-20 08:43:43,15.0884148,0.0001056,53.2163,218.6222,71.4537,288.657,0.00021664,3.162e-05,0.0,0 STARLINK-5097,1 53995U 22125AH  23201.36369872  .00003162  00000-0  21664-3 0  9999,2 53995  53.2163 218.6222 0001056  71.4537 288.6570 15.08841480 44109,6917.876,95.437,540.471,539.01,0.0
53995.0,STARLINK-5097,PAYLOAD,2023-07-21 10:09:54,15.08839601,0.0001293,53.2169,213.8647,63.2418,296.8707,0.00011512,1.545e-05,0.0,0 STARLINK-5097,1 53995U 22125AH  23202.42354529  .00001545  00000-0  11512-3 0  9994,2 53995  53.2169 213.8647 0001293  63.2418 296.8707 15.08839601 44265,6917.882,95.438,540.641,538.852,0.0
53995.0,STARLINK-5097,PAYLOAD,2023-07-24 09:42:15,15.0883755,0.0001244,53.2172,200.4821,86.66,273.4534,-1.3187e-05,-4.98e-06,0.0,0 STARLINK-5097,1 53995U 22125AH  23205.40434367 -.00000498  00000-0 -13187-4 0  9993,2 53995  53.2172 200.4821 0001244  86.6600 273.4534 15.08837550 44634,6917.888,95.438,540.613,538.892,0.0
53995.0,STARLINK-5097,PAYLOAD,2023-07-25 11:08:25,15.08840073,0.0001257,53.217,195.7254,75.6309,284.4823,5.0527e-05,5.16e-06,0.0,0 STARLINK-5097,1 53995U 22125AH  23206.46418189  .00000516  00000-0  50527-4 0  9992,2 53995  53.2170 195.7254 0001257  75.6309 284.4823 15.08840073 44790,6917.88,95.438,540.615,538.876,0.0
53995.0,STARLINK-5097,PAYLOAD,2023-07-26 07:48:26,15.08838059,0.0001303,53.2169,191.8593,71.9933,288.1201,2.1378e-06,-2.54e-06,0.0,0 STARLINK-5097,1 53995U 22125AH  23207.32530531 -.00000254  00000-0  21378-5 0  9997,2 53995  53.2169 191.8593 0001303  71.9933 288.1201 15.08838059 44922,6917.886,95.438,540.653,538.85,0.0
53995.0,STARLINK-5097,PAYLOAD,2023-07-27 09:14:36,15.08845699,0.0001279,53.2166,187.1007,94.1733,265.9405,-0.00010298,-1.927e-05,0.0,0 STARLINK-5097,1 53995U 22125AH  23208.38514593 -.00001927  00000-0 -10298-3 0  9990,2 53995  53.2166 187.1007 0001279  94.1733 265.9405 15.08845699 45168,6917.863,95.437,540.613,538.843,0.0
53995.0,STARLINK-5097,PAYLOAD,2023-07-27 10:49:59,15.08840162,0.0001158,53.2164,186.8045,89.1741,270.9383,2.503e-05,1.11e-06,0.0,0 STARLINK-5097,1 53995U 22125AH  23208.45138590  .00000111  00000-0  25030-4 0  9990,2 53995  53.2164 186.8045 0001158  89.1741 270.9383 15.08840162 45096,6917.88,95.438,540.546,538.944,0.0
53995.0,STARLINK-5097,PAYLOAD,2023-07-27 15:36:09,15.08829421,0.0001284,53.2167,185.9113,92.59,267.5239,-1.5416e-05,-5.33e-06,0.0,0 STARLINK-5097,1 53995U 22125AH  23208.65011444 -.00000533  00000-0 -15416-4 0  9997,2 53995  53.2167 185.9113 0001284  92.5900 267.5239 15.08829421 45200,6917.913,95.438,540.666,538.889,0.0
53995.0,STARLINK-5097,PAYLOAD,2023-07-27 21:57:42,15.088312,0.0001251,53.2177,184.7217,91.4553,268.6582,2.1814e-06,-2.53e-06,0.0,0 STARLINK-5097,1 53995U 22125AH  23208.91507391 -.00000253  00000-0  21814-5 0  9995,2 53995  53.2177 184.7217 0001251  91.4553 268.6582 15.08831200 45165,6917.907,95.438,540.638,538.907,0.0
53995.0,STARLINK-5097,PAYLOAD,2023-07-28 07:30:01,15.08836878,0.0001286,53.2172,182.9374,90.1953,269.9187,-3.5319e-06,-3.44e-06,0.0,0 STARLINK-5097,1 53995U 22125AH  23209.31251208 -.00000344  00000-0 -35319-5 0  9990,2 53995  53.2172 182.9374 0001286  90.1953 269.9187 15.08836878 45309,6917.89,95.438,540.645,538.865,0.0
53995.0,STARLINK-5097,PAYLOAD,2023-07-29 15:17:43,15.08835083,0.0001341,53.2169,176.99,92.0851,268.0294,8.2173e-05,1.02e-05,0.0,0 STARLINK-5097,1 53995U 22125AH  23210.63731368  .00001020  00000-0  82173-4 0  9996,2 53995  53.2169 176.9900 0001341  92.0851 268.0294 15.08835083 45501,6917.895,95.438,540.688,538.833,0.0
53995.0,STARLINK-5097,PAYLOAD,2023-07-30 07:11:34,15.08842068,0.0001271,53.217,174.016,96.0656,264.0481,8.7806e-05,1.11e-05,0.0,0 STARLINK-5097,1 53995U 22125AH  23211.29970946  .00001110  00000-0  87806-4 0  9994,2 53995  53.2170 174.0160 0001271  96.0656 264.0481 15.08842068 45605,6917.874,95.437,540.618,538.86,0.0
53995.0,STARLINK-5097,PAYLOAD,2023-08-01 02:06:59,15.0884101,0.0001366,53.2179,165.9868,93.9986,266.1162,2.8853e-05,1.71e-06,0.0,0 STARLINK-5097,1 53995U 22125AH  23213.08819175  .00000171  00000-0  28853-4 0  9992,2 53995  53.2179 165.9868 0001366  93.9986 266.1162 15.08841010 45879,6917.877,95.437,540.687,538.797,0.0
